{"type": "FeatureCollection", "features": [ {"type": "Feature", "properties": {"norad_id": 66639, "name": "STARLINK-35908", "group": "last-30-days", "lat": 24.048503576844766, "lon": -172.03885137967893, "alt_km": 415.4384209279242, "timestamp": "2025-12-16T15:45:49.732644+00:00", "meta": {"OBJECT_NAME": "STARLINK-35908", "OBJECT_ID": "2025-271Y", "EPOCH": "2025-12-15T22:00:01.999584", "MEAN_MOTION": 15.49252547, "ECCENTRICITY": 9.515e-05, "INCLINATION": 53.1589, "RA_OF_ASC_NODE": 171.9547, "ARG_OF_PERICENTER": 74.8716, "MEAN_ANOMALY": 145.3655, "EPHEMERIS_TYPE": 0, "CLASSIFICATION_TYPE": "U", "NORAD_CAT_ID": 66639, "ELEMENT_SET_NO": 999, "REV_AT_EPOCH": 475, "BSTAR": 0.0014431779, "MEAN_MOTION_DOT": 0.00080486, "MEAN_MOTION_DDOT": 0}, "tle": {"line1": "1 66639U 25271Y   25349.91668981  .00080486  00000+0  14432-2 0  9999", "line2": "2 66639  53.1589 171.9547 0000951  74.8716 145.3655 15.49252547  4754"}}, "geometry": {"type": "Point", "coordinates": [-172.03885137967893, 24.048503576844766]}}, {"type": "Feature", "properties": {"norad_id": 66640, "name": "STARLINK-35921", "group": "last-30-days", "lat": 25.490888953732345, "lon": -170.64452543835557, "alt_km": 415.05680869261687, "timestamp": "2025-12-16T15:45:49.732654+00:00", "meta": {"OBJECT_NAME": "STARLINK-35921", "OBJECT_ID": "2025-271Z", "EPOCH": "2025-12-15T22:00:01.999584", "MEAN_MOTION": 15.49254395, "ECCENTRICITY": 0.00012182, "INCLINATION": 53.159, "RA_OF_ASC_NODE": 171.9509, "ARG_OF_PERICENTER": 74.7899, "MEAN_ANOMALY": 147.3633, "EPHEMERIS_TYPE": 0, "CLASSIFICATION_TYPE": "U", "NORAD_CAT_ID": 66640, "ELEMENT_SET_NO": 999, "REV_AT_EPOCH": 475, "BSTAR": 0.0014472077, "MEAN_MOTION_DOT": 0.0008072, "MEAN_MOTION_DDOT": 0}, "tle": {"line1": "1 66640U 25271Z   25349.91668981  .00080720  00000+0  14472-2 0  9996", "line2": "2 66640  53.1590 171.9509 0001218  74.7899 147.3633 15.49254395  4755"}}, "geometry": {"type": "Point", "coordinates": [-170.64452543835557, 25.490888953732345]}}, {"type": "Feature", "properties": {"norad_id": 66641, "name": "STARLINK-35923", "group": "last-30-days", "lat": 31.10330942189791, "lon": -164.71239316645523, "alt_km": 414.2292392651507, "timestamp": "2025-12-16T15:45:49.732664+00:00", "meta": {"OBJECT_NAME": "STARLINK-35923", "OBJECT_ID": "2025-271AA", "EPOCH": "2025-12-15T22:00:01.999584", "MEAN_MOTION": 15.49258702, "ECCENTRICITY": 0.00011604, "INCLINATION": 53.1589, "RA_OF_ASC_NODE": 171.9339, "ARG_OF_PERICENTER": 88.4901, "MEAN_ANOMALY": 141.3192, "EPHEMERIS_TYPE": 0, "CLASSIFICATION_TYPE": "U", "NORAD_CAT_ID": 66641, "ELEMENT_SET_NO": 999, "REV_AT_EPOCH": 475, "BSTAR": 0.0014345679, "MEAN_MOTION_DOT": 0.00080016, "MEAN_MOTION_DDOT": 0}, "tle": {"line1": "1 66641U 25271AA  25349.91668981  .00080016  00000+0  14346-2 0  9995", "line2": "2 66641  53.1589 171.9339 0001160  88.4901 141.3192 15.49258702  4757"}}, "geometry": {"type": "Point", "coordinates": [-164.71239316645523, 31.10330942189791]}}, {"type": "Feature", "properties": {"norad_id": 66642, "name": "STARLINK-35926", "group": "last-30-days", "lat": 29.729169419517024, "lon": -166.25064436237614, "alt_km": 414.4853145390216, "timestamp": "2025-12-16T15:45:49.732674+00:00", "meta": {"OBJECT_NAME": "STARLINK-35926", "OBJECT_ID": "2025-271AB", "EPOCH": "2025-12-15T22:00:01.999584", "MEAN_MOTION": 15.49258006, "ECCENTRICITY": 7.921e-05, "INCLINATION": 53.1589, "RA_OF_ASC_NODE": 171.9388, "ARG_OF_PERICENTER": 66.9017, "MEAN_ANOMALY": 160.9914, "EPHEMERIS_TYPE": 0, "CLASSIFICATION_TYPE": "U", "NORAD_CAT_ID": 66642, "ELEMENT_SET_NO": 999, "REV_AT_EPOCH": 451, "BSTAR": 0.0014500199, "MEAN_MOTION_DOT": 0.00080889, "MEAN_MOTION_DDOT": 0}, "tle": {"line1": "1 66642U 25271AB  25349.91668981  .00080889  00000+0  14500-2 0  9996", "line2": "2 66642  53.1589 171.9388 0000792  66.9017 160.9914 15.49258006  4511"}}, "geometry": {"type": "Point", "coordinates": [-166.25064436237614, 29.729169419517024]}}, {"type": "Feature", "properties": {"norad_id": 66643, "name": "STARLINK-35918", "group": "last-30-days", "lat": 26.9170759180416, "lon": -169.21898052342758, "alt_km": 414.7778374429399, "timestamp": "2025-12-16T15:45:49.732684+00:00", "meta": {"OBJECT_NAME": "STARLINK-35918", "OBJECT_ID": "2025-271AC", "EPOCH": "2025-12-15T22:00:01.999584", "MEAN_MOTION": 15.49254162, "ECCENTRICITY": 0.00012292, "INCLINATION": 53.159, "RA_OF_ASC_NODE": 171.9471, "ARG_OF_PERICENTER": 72.0093, "MEAN_ANOMALY": 152.0608, "EPHEMERIS_TYPE": 0, "CLASSIFICATION_TYPE": "U", "NORAD_CAT_ID": 66643, "ELEMENT_SET_NO": 999, "REV_AT_EPOCH": 475, "BSTAR": 0.0014372534, "MEAN_MOTION_DOT": 0.00080155, "MEAN_MOTION_DDOT": 0}, "tle": {"line1": "1 66643U 25271AC  25349.91668981  .00080155  00000+0  14373-2 0  9991", "line2": "2 66643  53.1590 171.9471 0001229  72.0093 152.0608 15.49254162  4752"}}, "geometry": {"type": "Point", "coordinates": [-169.21898052342758, 26.9170759180416]}}, {"type": "Feature", "properties": {"norad_id": 66644, "name": "STARLINK-35938", "group": "last-30-days", "lat": 28.333346423544324, "lon": -167.7520342651855, "alt_km": 414.8519905236344, "timestamp": "2025-12-16T15:45:49.732697+00:00", "meta": {"OBJECT_NAME": "STARLINK-35938", "OBJECT_ID": "2025-271AD", "EPOCH": "2025-12-15T22:00:01.999584", "MEAN_MOTION": 15.49255384, "ECCENTRICITY": 6.422e-05, "INCLINATION": 53.1589, "RA_OF_ASC_NODE": 171.9431, "ARG_OF_PERICENTER": 74.3022, "MEAN_ANOMALY": 151.6838, "EPHEMERIS_TYPE": 0, "CLASSIFICATION_TYPE": "U", "NORAD_CAT_ID": 66644, "ELEMENT_SET_NO": 999, "REV_AT_EPOCH": 475, "BSTAR": 0.0014286683, "MEAN_MOTION_DOT": 0.00079672, "MEAN_MOTION_DDOT": 0}, "tle": {"line1": "1 66644U 25271AD  25349.91668981  .00079672  00000+0  14287-2 0  9998", "line2": "2 66644  53.1589 171.9431 0000642  74.3022 151.6838 15.49255384  4759"}}, "geometry": {"type": "Point", "coordinates": [-167.7520342651855, 28.333346423544324]}}, {"type": "Feature", "properties": {"norad_id": 66645, "name": "SHENZHOU-22", "group": "last-30-days", "lat": -11.67644000625458, "lon": -173.54410587246232, "alt_km": 394.328458768332, "timestamp": "2025-12-16T15:45:49.732709+00:00", "meta": {"OBJECT_NAME": "SHENZHOU-22", "OBJECT_ID": "2025-272A", "EPOCH": "2025-12-15T17:24:02.570400", "MEAN_MOTION": 15.59304358, "ECCENTRICITY": 0.00079014, "INCLINATION": 41.4685, "RA_OF_ASC_NODE": 358.5824, "ARG_OF_PERICENTER": 56.1338, "MEAN_ANOMALY": 304.0252, "EPHEMERIS_TYPE": 0, "CLASSIFICATION_TYPE": "U", "NORAD_CAT_ID": 66645, "ELEMENT_SET_NO": 999, "REV_AT_EPOCH": 26357, "BSTAR": 0.00018266576, "MEAN_MOTION_DOT": 0.00014504, "MEAN_MOTION_DDOT": 0}, "tle": {"line1": "1 66645U 25272A   25349.72502975  .00014504  00000+0  18267-3 0  9995", "line2": "2 66645  41.4685 358.5824 0007901  56.1338 304.0252 15.59304358263577"}}, "geometry": {"type": "Point", "coordinates": [-173.54410587246232, -11.67644000625458]}}, {"type": "Feature", "properties": {"norad_id": 66647, "name": "COSMOS 2597 (RODNIK-S 22)", "group": "last-30-days", "lat": -25.98132023137049, "lon": -79.66421977403762, "alt_km": 1500.4011618173336, "timestamp": "2025-12-16T15:45:49.732719+00:00", "meta": {"OBJECT_NAME": "COSMOS 2597 (RODNIK-S 22)", "OBJECT_ID": "2025-273A", "EPOCH": "2025-12-15T22:30:14.973120", "MEAN_MOTION": 12.41952036, "ECCENTRICITY": 0.00076901, "INCLINATION": 82.4989, "RA_OF_ASC_NODE": 284.4632, "ARG_OF_PERICENTER": 279.3024, "MEAN_ANOMALY": 80.7185, "EPHEMERIS_TYPE": 0, "CLASSIFICATION_TYPE": "U", "NORAD_CAT_ID": 66647, "ELEMENT_SET_NO": 999, "REV_AT_EPOCH": 253, "BSTAR": -5.316386e-05, "MEAN_MOTION_DOT": 3e-08, "MEAN_MOTION_DDOT": 0}, "tle": {"line1": "1 66647U 25273A   25349.93767330  .00000003  00000+0 -53164-4 0  9995", "line2": "2 66647  82.4989 284.4632 0007690 279.3024  80.7185 12.41952036  2531"}}, "geometry": {"type": "Point", "coordinates": [-79.66421977403762, -25.98132023137049]}}, {"type": "Feature", "properties": {"norad_id": 66648, "name": "COSMOS 2598 (RODNIK-S 23)", "group": "last-30-days", "lat": 27.25019276330056, "lon": -72.09876113123295, "alt_km": 1497.5379183086843, "timestamp": "2025-12-16T15:45:49.732729+00:00", "meta": {"OBJECT_NAME": "COSMOS 2598 (RODNIK-S 23)", "OBJECT_ID": "2025-273B", "EPOCH": "2025-12-15T22:14:00.985920", "MEAN_MOTION": 12.43233462, "ECCENTRICITY": 0.00080122, "INCLINATION": 82.5028, "RA_OF_ASC_NODE": 284.4669, "ARG_OF_PERICENTER": 229.2968, "MEAN_ANOMALY": 130.7416, "EPHEMERIS_TYPE": 0, "CLASSIFICATION_TYPE": "U", "NORAD_CAT_ID": 66648, "ELEMENT_SET_NO": 999, "REV_AT_EPOCH": 253, "BSTAR": -9.7607786e-05, "MEAN_MOTION_DOT": -4e-08, "MEAN_MOTION_DDOT": 0}, "tle": {"line1": "1 66648U 25273B   25349.92640030 -.00000004  00000+0 -97608-4 0  9995", "line2": "2 66648  82.5028 284.4669 0008012 229.2968 130.7416 12.43233462  2537"}}, "geometry": {"type": "Point", "coordinates": [-72.09876113123295, 27.25019276330056]}}, {"type": "Feature", "properties": {"norad_id": 66649, "name": "COSMOS 2599 (RODNIK-S 24)", "group": "last-30-days", "lat": -55.42125990707011, "lon": -86.96986283354225, "alt_km": 1504.611704423045, "timestamp": "2025-12-16T15:45:49.732742+00:00", "meta": {"OBJECT_NAME": "COSMOS 2599 (RODNIK-S 24)", "OBJECT_ID": "2025-273C", "EPOCH": "2025-12-15T22:39:14.138496", "MEAN_MOTION": 12.41150981, "ECCENTRICITY": 0.00062985, "INCLINATION": 82.5046, "RA_OF_ASC_NODE": 284.4814, "ARG_OF_PERICENTER": 270.8068, "MEAN_ANOMALY": 89.2289, "EPHEMERIS_TYPE": 0, "CLASSIFICATION_TYPE": "U", "NORAD_CAT_ID": 66649, "ELEMENT_SET_NO": 999, "REV_AT_EPOCH": 253, "BSTAR": -7.3515866e-05, "MEAN_MOTION_DOT": 0, "MEAN_MOTION_DDOT": 0}, "tle": {"line1": "1 66649U 25273C   25349.94391364  .00000000  00000+0 -73516-4 0  9998", "line2": "2 66649  82.5046 284.4814 0006298 270.8068  89.2289 12.41150981  2535"}}, "geometry": {"type": "Point", "coordinates": [-86.96986283354225, -55.42125990707011]}}]}